{
  "type": "FeatureCollection",
  "features": [
    {
      "type": "Feature",
      "properties": {
        "norad_id": 56564,
        "name": "BEIDOU-3 G4 (C62)",
        "group": "beidou",
        "lat": 0.653027400569624,
        "lon": -6.23672611010124,
        "alt_km": 35798.91658386104,
        "timestamp": "2025-12-09T07:41:33.473469+00:00",
        "meta_object_name": "BEIDOU-3 G4 (C62)",
        "meta_object_id": "2023-066A",
        "meta_epoch": "2025-12-08T21:12:47.118816",
        "meta_mean_motion": 1.00271183,
        "meta_eccentricity": 0.00030423,
        "meta_inclination": 0.8232,
        "meta_ra_of_asc_node": 301.7536,
        "meta_arg_of_pericenter": 235.8213,
        "meta_mean_anomaly": 18.5721,
        "meta_ephemeris_type": 0,
        "meta_classification_type": "U",
        "meta_norad_cat_id": 56564,
        "meta_element_set_no": 999,
        "meta_rev_at_epoch": 948,
        "meta_bstar": 0,
        "meta_mean_motion_dot": -1.09e-06,
        "meta_mean_motion_ddot": 0,
        "tle_line1": "1 56564U 23066A   25342.88387869 -.00000109  00000+0  00000+0 0  9995",
        "tle_line2": "2 56564   0.8232 301.7536 0003042 235.8213  18.5721  1.00271183  9489"
      },
      "geometry": {
        "type": "Point",
        "coordinates": [
          -6.23672611010124,
          0.653027400569624
        ]
      }
    },
    {
      "type": "Feature",
      "properties": {
        "norad_id": 58654,
        "name": "BEIDOU-3 M28 (C50)",
        "group": "beidou",
        "lat": 50.78165789536996,
        "lon": 125.75508788862909,
        "alt_km": 21528.13824373428,
        "timestamp": "2025-12-09T07:41:33.473480+00:00",
        "meta_object_name": "BEIDOU-3 M28 (C50)",
        "meta_object_id": "2023-207A",
        "meta_epoch": "2025-12-07T14:31:49.044864",
        "meta_mean_motion": 1.86229593,
        "meta_eccentricity": 0.0002234,
        "meta_inclination": 55.5801,
        "meta_ra_of_asc_node": 68.7753,
        "meta_arg_of_pericenter": 268.0479,
        "meta_mean_anomaly": 91.9457,
        "meta_ephemeris_type": 0,
        "meta_classification_type": "U",
        "meta_norad_cat_id": 58654,
        "meta_element_set_no": 999,
        "meta_rev_at_epoch": 1327,
        "meta_bstar": 0,
        "meta_mean_motion_dot": -4.6e-07,
        "meta_mean_motion_ddot": 0,
        "tle_line1": "1 58654U 23207A   25341.60542876 -.00000046  00000+0  00000+0 0  9994",
        "tle_line2": "2 58654  55.5801  68.7753 0002234 268.0479  91.9457  1.86229593 13270"
      },
      "geometry": {
        "type": "Point",
        "coordinates": [
          125.75508788862909,
          50.78165789536996
        ]
      }
    },
    {
      "type": "Feature",
      "properties": {
        "norad_id": 58655,
        "name": "BEIDOU-3 M26 (C48)",
        "group": "beidou",
        "lat": -20.81105476962481,
        "lon": -96.20426498344541,
        "alt_km": 21524.109810172904,
        "timestamp": "2025-12-09T07:41:33.473492+00:00",
        "meta_object_name": "BEIDOU-3 M26 (C48)",
        "meta_object_id": "2023-207B",
        "meta_epoch": "2025-12-08T11:26:54.595392",
        "meta_mean_motion": 1.8623113,
        "meta_eccentricity": 0.00036549,
        "meta_inclination": 55.583,
        "meta_ra_of_asc_node": 68.7321,
        "meta_arg_of_pericenter": 253.8899,
        "meta_mean_anomaly": 106.0912,
        "meta_ephemeris_type": 0,
        "meta_classification_type": "U",
        "meta_norad_cat_id": 58655,
        "meta_element_set_no": 999,
        "meta_rev_at_epoch": 1327,
        "meta_bstar": 0,
        "meta_mean_motion_dot": -4.7e-07,
        "meta_mean_motion_ddot": 0,
        "tle_line1": "1 58655U 23207B   25342.47702078 -.00000047  00000+0  00000+0 0  9994",
        "tle_line2": "2 58655  55.5830  68.7321 0003654 253.8899 106.0912  1.86231130 13273"
      },
      "geometry": {
        "type": "Point",
        "coordinates": [
          -96.20426498344541,
          -20.81105476962481
        ]
      }
    },
    {
      "type": "Feature",
      "properties": {
        "norad_id": 61186,
        "name": "BEIDOU-3 M25 (C47)",
        "group": "beidou",
        "lat": -29.794379406222884,
        "lon": -75.1489484660587,
        "alt_km": 21518.352878728943,
        "timestamp": "2025-12-09T07:41:33.473503+00:00",
        "meta_object_name": "BEIDOU-3 M25 (C47)",
        "meta_object_id": "2024-168B",
        "meta_epoch": "2025-12-08T20:08:08.310912",
        "meta_mean_motion": 1.8622988,
        "meta_eccentricity": 0.00054406,
        "meta_inclination": 54.6453,
        "meta_ra_of_asc_node": 308.8544,
        "meta_arg_of_pericenter": 295.846,
        "meta_mean_anomaly": 63.7287,
        "meta_ephemeris_type": 0,
        "meta_classification_type": "U",
        "meta_norad_cat_id": 61186,
        "meta_element_set_no": 999,
        "meta_rev_at_epoch": 823,
        "meta_bstar": 0,
        "meta_mean_motion_dot": -7.5e-07,
        "meta_mean_motion_ddot": 0,
        "tle_line1": "1 61186U 24168B   25342.83898508 -.00000075  00000+0  00000+0 0  9999",
        "tle_line2": "2 61186  54.6453 308.8544 0005440 295.8460  63.7287  1.86229880  8230"
      },
      "geometry": {
        "type": "Point",
        "coordinates": [
          -75.1489484660587,
          -29.794379406222884
        ]
      }
    },
    {
      "type": "Feature",
      "properties": {
        "norad_id": 61187,
        "name": "BEIDOU-3 M27 (C49)",
        "group": "beidou",
        "lat": 53.97016233132667,
        "lon": 51.490888445565,
        "alt_km": 21525.464754190347,
        "timestamp": "2025-12-09T07:41:33.473519+00:00",
        "meta_object_name": "BEIDOU-3 M27 (C49)",
        "meta_object_id": "2024-168C",
        "meta_epoch": "2025-12-08T15:20:42.241056",
        "meta_mean_motion": 1.86230009,
        "meta_eccentricity": 0.00023172,
        "meta_inclination": 54.641,
        "meta_ra_of_asc_node": 308.845,
        "meta_arg_of_pericenter": 333.6022,
        "meta_mean_anomaly": 27.0867,
        "meta_ephemeris_type": 0,
        "meta_classification_type": "U",
        "meta_norad_cat_id": 61187,
        "meta_element_set_no": 999,
        "meta_rev_at_epoch": 571,
        "meta_bstar": 0,
        "meta_mean_motion_dot": -7.4e-07,
        "meta_mean_motion_ddot": 0,
        "tle_line1": "1 61187U 24168C   25342.63937779 -.00000074  00000+0  00000+0 0  9991",
        "tle_line2": "2 61187  54.6410 308.8450 0002317 333.6022  27.0867  1.86230009  5717"
      },
      "geometry": {
        "type": "Point",
        "coordinates": [
          51.490888445565,
          53.97016233132667
        ]
      }
    }
  ]
}